25621,GLOBALSTAR M023,1999,114.06,-1.0,-,52.01,Inactive,0,LEO,Kazakhstan,Globalstar,Unknown,Unknown,Unknown,1 25621U 99004A   24320.78113109 -.00000035  00000+0  38192-3 0  9993,2 25621  52.0123 343.2630 0010079  17.5572 153.6323 12.62483023188861,12.62483023,0.0010079,LEO
25622,GLOBALSTAR M040,1999,114.11,-1.0,-,51.99,Inactive,0,LEO,Kazakhstan,Globalstar,Unknown,Unknown,Unknown,1 25622U 99004B   24320.50990378 -.00000059  00000+0  24936-3 0  9992,2 25622  51.9935 347.9232 0000525 289.1439 221.1356 12.61990316188273,12.61990316,5.25e-05,LEO
25623,GLOBALSTAR M036,1999,121.36,-1.0,-,52.0,Inactive,0,LEO,Kazakhstan,Globalstar,Unknown,Unknown,Unknown,1 25623U 99004C   24320.41139435 -.00000085  00000+0 -28368-4 0  9996,2 25623  51.9964  83.7775 0010616   7.1535  33.2068 11.86580525153604,11.86580525,0.0010616,LEO
25624,GLOBALSTAR M038,1999,116.83,-1.0,-,52.0,Inactive,0,LEO,Kazakhstan,Globalstar,Unknown,Unknown,Unknown,1 25624U 99004D   24320.75641189 -.00000056  00000+0  32360-3 0  9991,2 25624  51.9989 326.2226 0001842 336.9539 194.8925 12.32513730176018,12.3251373,0.0001842,LEO
25649,GLOBALSTAR M022,1999,119.75,-1.0,-,52.0,Inactive,0,LEO,Kazakhstan,Globalstar,Unknown,Unknown,Unknown,1 25649U 99012A   24320.52651488 -.00000030  00000+0  68764-3 0  9994,2 25649  52.0006 151.7257 0003492 100.6586 294.1124 12.02491564150679,12.02491564,0.0003492,LEO
25650,GLOBALSTAR M041,1999,120.33,-1.0,-,52.0,Inactive,0,LEO,Kazakhstan,Globalstar,Unknown,Unknown,Unknown,1 25650U 99012B   24320.55517973 -.00000049  00000+0  46255-3 0  9990,2 25650  52.0048  26.5851 0001973 252.1480 107.9141 11.96661244152706,11.96661244,0.0001973,LEO
25651,GLOBALSTAR M046,1999,119.07,-1.0,-,52.0,Inactive,0,LEO,Kazakhstan,Globalstar,Unknown,Unknown,Unknown,1 25651U 99012C   24320.80379120 -.00000157  00000+0 -75423-3 0  9999,2 25651  52.0034 108.8925 0002648 162.0696 345.7867 12.09401073158199,12.09401073,0.0002648,LEO
25652,GLOBALSTAR M037,1999,114.07,450.0,-,52.0,Inactive,1,LEO,Kazakhstan,Globalstar,Commercial,Communications,Soyuz,1 25652U 99012D   24320.82394356 -.00000060  00000+0  24386-3 0  9994,2 25652  51.9984 113.8250 0002912  85.4394  62.7756 12.62425740184385,12.6242574,0.0002912,LEO
